start=new Date('2022-06-20T00:00:00.000Z').valueOf();
sats=[{"TIME_SYSTEM":"UTC","OBJECT_NAME":"STARLINK-1621","COUNTRY_CODE":"US","MEAN_MOTION_DDOT":"0.0000000000000","CLASSIFICATION_TYPE":"U","LAUNCH_DATE":"2020-08-18","ECCENTRICITY":"0.00015970","FILE":"3497669","TLE_LINE1":"1 46127U 20057L   22170.60053280  .00001799  00000-0  13966-3 0  9994","ARG_OF_PERICENTER":"59.8716","MEAN_ELEMENT_THEORY":"SGP4","RA_OF_ASC_NODE":"277.8035","ELEMENT_SET_NO":"999","BSTAR":"0.00013966000000","GP_ID":"206444997","REF_FRAME":"TEME","TLE_LINE2":"2 46127  53.0536 277.8035 0001597  59.8716 300.2431 15.06395945101499","CENTER_NAME":"EARTH","EPHEMERIS_TYPE":"0","RCS_SIZE":"LARGE","MEAN_MOTION_DOT":"0.00001799","MEAN_ANOMALY":"300.2431","DECAY_DATE":null,"PERIOD":"95.592","INCLINATION":"53.0536","OBJECT_TYPE":"PAYLOAD","EPOCH":"2022-06-19T14:24:46.033920","REV_AT_EPOCH":"10149","MEAN_MOTION":"15.06395945","OBJECT_ID":"2020-057L","SEMIMAJOR_AXIS":"6925.361","SITE":"AFETR","PERIAPSIS":"546.120","APOAPSIS":"548.332","NORAD_CAT_ID":"46127"},{"OBJECT_NAME":"STARLINK-1622","TIME_SYSTEM":"UTC","COUNTRY_CODE":"US","CLASSIFICATION_TYPE":"U","MEAN_MOTION_DDOT":"0.0000000000000","LAUNCH_DATE":"2020-08-18","ECCENTRICITY":"0.00014010","FILE":"3497669","TLE_LINE1":"1 46128U 20057M   22170.62817810  .00001739  00000-0  13562-3 0  9990","ARG_OF_PERICENTER":"85.3320","MEAN_ELEMENT_THEORY":"SGP4","RA_OF_ASC_NODE":"257.6802","ELEMENT_SET_NO":"999","BSTAR":"0.00013562000000","GP_ID":"206445248","REF_FRAME":"TEME","MEAN_ANOMALY":"274.7829","MEAN_MOTION_DOT":"0.00001739","TLE_LINE2":"2 46128  53.0524 257.6802 0001401  85.3320 274.7829 15.06389501101783","CENTER_NAME":"EARTH","EPHEMERIS_TYPE":"0","RCS_SIZE":"LARGE","PERIOD":"95.593","DECAY_DATE":null,"INCLINATION":"53.0524","OBJECT_TYPE":"PAYLOAD","EPOCH":"2022-06-19T15:04:34.587840","REV_AT_EPOCH":"10178","SITE":"AFETR","MEAN_MOTION":"15.06389501","OBJECT_ID":"2020-057M","SEMIMAJOR_AXIS":"6925.381","APOAPSIS":"548.216","NORAD_CAT_ID":"46128","PERIAPSIS":"546.275"},{"REV_AT_EPOCH":"10179","OBJECT_TYPE":"PAYLOAD","EPOCH":"2022-06-19T16:02:57.524640","PERIAPSIS":"546.282","APOAPSIS":"548.225","NORAD_CAT_ID":"46129","MEAN_MOTION":"15.06387083","OBJECT_ID":"2020-057N","SEMIMAJOR_AXIS":"6925.388","SITE":"AFETR","CENTER_NAME":"EARTH","TLE_LINE2":"2 46129  53.0538 257.5135 0001403  73.7979 286.3164 15.06387083101795","RCS_SIZE":"LARGE","EPHEMERIS_TYPE":"0","MEAN_ANOMALY":"286.3164","MEAN_MOTION_DOT":"0.00001308","BSTAR":"0.00010669000000","GP_ID":"206445495","REF_FRAME":"TEME","INCLINATION":"53.0538","DECAY_DATE":null,"PERIOD":"95.593","MEAN_ELEMENT_THEORY":"SGP4","FILE":"3497669","ARG_OF_PERICENTER":"73.7979","TLE_LINE1":"1 46129U 20057N   22170.66872135  .00001308  00000-0  10669-3 0  9993","ELEMENT_SET_NO":"999","RA_OF_ASC_NODE":"257.5135","COUNTRY_CODE":"US","TIME_SYSTEM":"UTC","OBJECT_NAME":"STARLINK-1623","LAUNCH_DATE":"2020-08-18","ECCENTRICITY":"0.00014030","MEAN_MOTION_DDOT":"0.0000000000000","CLASSIFICATION_TYPE":"U"},{"PERIAPSIS":"546.071","APOAPSIS":"548.400","NORAD_CAT_ID":"46130","MEAN_MOTION":"15.06392792","SEMIMAJOR_AXIS":"6925.371","OBJECT_ID":"2020-057P","SITE":"AFETR","REV_AT_EPOCH":"10305","OBJECT_TYPE":"PAYLOAD","EPOCH":"2022-06-19T18:26:15.699264","INCLINATION":"53.0544","DECAY_DATE":null,"PERIOD":"95.593","CENTER_NAME":"EARTH","TLE_LINE2":"2 46130  53.0544 257.0489 0001682  55.2001 304.9146 15.06392792103052","EPHEMERIS_TYPE":"0","RCS_SIZE":"LARGE","MEAN_ANOMALY":"304.9146","MEAN_MOTION_DOT":"-0.00000179","BSTAR":"0.00000685790000","REF_FRAME":"TEME","GP_ID":"206444248","ELEMENT_SET_NO":"999","RA_OF_ASC_NODE":"257.0489","MEAN_ELEMENT_THEORY":"SGP4","FILE":"3497669","TLE_LINE1":"1 46130U 20057P   22170.76823726 -.00000179  00000-0  68579-5 0  9999","ARG_OF_PERICENTER":"55.2001","LAUNCH_DATE":"2020-08-18","ECCENTRICITY":"0.00016820","MEAN_MOTION_DDOT":"0.0000000000000","CLASSIFICATION_TYPE":"U","COUNTRY_CODE":"US","TIME_SYSTEM":"UTC","OBJECT_NAME":"STARLINK-1624"},{"RA_OF_ASC_NODE":"277.2944","ELEMENT_SET_NO":"999","ARG_OF_PERICENTER":"73.1347","TLE_LINE1":"1 46131U 20057Q   22170.71478819  .00010176  00000-0  70077-3 0  9995","FILE":"3497669","MEAN_ELEMENT_THEORY":"SGP4","CLASSIFICATION_TYPE":"U","MEAN_MOTION_DDOT":"0.0000000000000","LAUNCH_DATE":"2020-08-18","ECCENTRICITY":"0.00012580","OBJECT_NAME":"STARLINK-1625","TIME_SYSTEM":"UTC","COUNTRY_CODE":"US","SITE":"AFETR","SEMIMAJOR_AXIS":"6925.301","OBJECT_ID":"2020-057Q","MEAN_MOTION":"15.06415468","NORAD_CAT_ID":"46131","APOAPSIS":"548.037","PERIAPSIS":"546.295","EPOCH":"2022-06-19T17:09:17.699616","OBJECT_TYPE":"PAYLOAD","REV_AT_EPOCH":"10277","PERIOD":"95.591","DECAY_DATE":null,"INCLINATION":"53.0526","REF_FRAME":"TEME","GP_ID":"206444497","BSTAR":"0.00070077000000","MEAN_ANOMALY":"286.9780","MEAN_MOTION_DOT":"0.00010176","RCS_SIZE":"LARGE","EPHEMERIS_TYPE":"0","CENTER_NAME":"EARTH","TLE_LINE2":"2 46131  53.0526 277.2944 0001258  73.1347 286.9780 15.06415468102771"},{"INCLINATION":"53.0553","PERIOD":"95.592","DECAY_DATE":null,"MEAN_ANOMALY":"291.5703","MEAN_MOTION_DOT":"0.00001468","CENTER_NAME":"EARTH","TLE_LINE2":"2 46132  53.0553 296.8345 0001617  68.5458 291.5703 15.06394482102515","RCS_SIZE":"LARGE","EPHEMERIS_TYPE":"0","BSTAR":"0.00011747000000","GP_ID":"206445749","REF_FRAME":"TEME","APOAPSIS":"548.350","NORAD_CAT_ID":"46132","PERIAPSIS":"546.111","SITE":"AFETR","MEAN_MOTION":"15.06394482","SEMIMAJOR_AXIS":"6925.365","OBJECT_ID":"2020-057R","REV_AT_EPOCH":"10251","EPOCH":"2022-06-19T19:40:34.882752","OBJECT_TYPE":"PAYLOAD","LAUNCH_DATE":"2020-08-18","ECCENTRICITY":"0.00016170","CLASSIFICATION_TYPE":"U","MEAN_MOTION_DDOT":"0.0000000000000","COUNTRY_CODE":"US","OBJECT_NAME":"STARLINK-1630","TIME_SYSTEM":"UTC","ELEMENT_SET_NO":"999","RA_OF_ASC_NODE":"296.8345","MEAN_ELEMENT_THEORY":"SGP4","FILE":"3497669","TLE_LINE1":"1 46132U 20057R   22170.81984818  .00001468  00000-0  11747-3 0  9991","ARG_OF_PERICENTER":"68.5458"},{"MEAN_MOTION_DDOT":"0.0000000000000","CLASSIFICATION_TYPE":"U","LAUNCH_DATE":"2020-08-18","ECCENTRICITY":"0.00013040","TIME_SYSTEM":"UTC","OBJECT_NAME":"STARLINK-1637","COUNTRY_CODE":"US","RA_OF_ASC_NODE":"257.7126","ELEMENT_SET_NO":"999","FILE":"3497669","ARG_OF_PERICENTER":"84.7831","TLE_LINE1":"1 46133U 20057S   22170.62080116 -.00000346  00000-0 -43335-5 0  9995","MEAN_ELEMENT_THEORY":"SGP4","DECAY_DATE":null,"PERIOD":"95.592","INCLINATION":"53.0550","BSTAR":"-0.00000433350000","REF_FRAME":"TEME","GP_ID":"206445996","CENTER_NAME":"EARTH","TLE_LINE2":"2 46133  53.0550 257.7126 0001304  84.7831 275.3307 15.06406044103030","RCS_SIZE":"LARGE","EPHEMERIS_TYPE":"0","MEAN_ANOMALY":"275.3307","MEAN_MOTION_DOT":"-0.00000346","MEAN_MOTION":"15.06406044","SEMIMAJOR_AXIS":"6925.330","OBJECT_ID":"2020-057S","SITE":"AFETR","PERIAPSIS":"546.292","APOAPSIS":"548.098","NORAD_CAT_ID":"46133","EPOCH":"2022-06-19T14:53:57.220224","OBJECT_TYPE":"PAYLOAD","REV_AT_EPOCH":"10303"},{"GP_ID":"206444749","REF_FRAME":"TEME","BSTAR":"0.00007639800000","RCS_SIZE":"LARGE","EPHEMERIS_TYPE":"0","TLE_LINE2":"2 46134  53.0559 257.0942 0001420  79.3286 280.7863 15.06390121101800","CENTER_NAME":"EARTH","MEAN_MOTION_DOT":"0.00000856","MEAN_ANOMALY":"280.7863","DECAY_DATE":null,"PERIOD":"95.593","INCLINATION":"53.0559","EPOCH":"2022-06-19T18:08:59.606016","OBJECT_TYPE":"PAYLOAD","REV_AT_EPOCH":"10180","OBJECT_ID":"2020-057T","SEMIMAJOR_AXIS":"6925.379","MEAN_MOTION":"15.06390121","SITE":"AFETR","PERIAPSIS":"546.260","APOAPSIS":"548.227","NORAD_CAT_ID":"46134","TIME_SYSTEM":"UTC","OBJECT_NAME":"STARLINK-1638","COUNTRY_CODE":"US","MEAN_MOTION_DDOT":"0.0000000000000","CLASSIFICATION_TYPE":"U","ECCENTRICITY":"0.00014200","LAUNCH_DATE":"2020-08-18","ARG_OF_PERICENTER":"79.3286","TLE_LINE1":"1 46134U 20057T   22170.75624544  .00000856  00000-0  76398-4 0  9997","FILE":"3497669","MEAN_ELEMENT_THEORY":"SGP4","RA_OF_ASC_NODE":"257.0942","ELEMENT_SET_NO":"999"},{"ECCENTRICITY":"0.00015930","LAUNCH_DATE":"2020-08-18","CLASSIFICATION_TYPE":"U","MEAN_MOTION_DDOT":"0.0000000000000","COUNTRY_CODE":"US","OBJECT_NAME":"STARLINK-1639","TIME_SYSTEM":"UTC","ELEMENT_SET_NO":"999","RA_OF_ASC_NODE":"258.2289","MEAN_ELEMENT_THEORY":"SGP4","FILE":"3497010","TLE_LINE1":"1 46135U 20057U   22170.50653924  .00002228  00000-0  16846-3 0  9991","ARG_OF_PERICENTER":"70.1942","INCLINATION":"53.0553","PERIOD":"95.593","DECAY_DATE":null,"MEAN_ANOMALY":"289.9218","MEAN_MOTION_DOT":"0.00002228","CENTER_NAME":"EARTH","TLE_LINE2":"2 46135  53.0553 258.2289 0001593  70.1942 289.9218 15.06392399101760","RCS_SIZE":"LARGE","EPHEMERIS_TYPE":"0","BSTAR":"0.00016846000000","REF_FRAME":"TEME","GP_ID":"206414191","APOAPSIS":"548.340","NORAD_CAT_ID":"46135","PERIAPSIS":"546.134","SITE":"AFETR","MEAN_MOTION":"15.06392399","SEMIMAJOR_AXIS":"6925.372","OBJECT_ID":"2020-057U","REV_AT_EPOCH":"10176","EPOCH":"2022-06-19T12:09:24.990336","OBJECT_TYPE":"PAYLOAD"},{"PERIOD":"95.593","DECAY_DATE":null,"INCLINATION":"53.0560","REF_FRAME":"TEME","GP_ID":"206445249","BSTAR":"0.00023935000000","MEAN_ANOMALY":"281.5049","MEAN_MOTION_DOT":"0.00003284","RCS_SIZE":"LARGE","EPHEMERIS_TYPE":"0","CENTER_NAME":"EARTH","TLE_LINE2":"2 46136  53.0560 287.1038 0001647  78.6125 281.5049 15.06381198101381","SITE":"AFETR","OBJECT_ID":"2020-057V","SEMIMAJOR_AXIS":"6925.406","MEAN_MOTION":"15.06381198","APOAPSIS":"548.412","NORAD_CAT_ID":"46136","PERIAPSIS":"546.131","EPOCH":"2022-06-19T18:05:00.770496","OBJECT_TYPE":"PAYLOAD","REV_AT_EPOCH":"10138","CLASSIFICATION_TYPE":"U","MEAN_MOTION_DDOT":"0.0000000000000","ECCENTRICITY":"0.00016470","LAUNCH_DATE":"2020-08-18","OBJECT_NAME":"STARLINK-1643","TIME_SYSTEM":"UTC","COUNTRY_CODE":"US","RA_OF_ASC_NODE":"287.1038","ELEMENT_SET_NO":"999","TLE_LINE1":"1 46136U 20057V   22170.75348114  .00003284  00000-0  23935-3 0  9991","ARG_OF_PERICENTER":"78.6125","FILE":"3497669","MEAN_ELEMENT_THEORY":"SGP4"}];
